#   ------------------ Verification test cases ----------------------
#                       # TEME example
1 25994U 99068A   10078.47526846  .00000090  00000-0  29984-4 0  6104
2 25994 098.2098 154.4006 0000634 103.1151 257.0122 14.57112682545248